STARLINK-31445          
1 59312U 24056S   26068.76323938 -.00001838  00000+0 -57293-4 0  9991
2 59312  42.9999 237.3767 0001523 276.6676  83.4003 15.27565850111083
TEVEL2-3                
1 63218U 25052J   26068.64540225  .00020365  00000+0  69446-3 0  9991
2 63218  97.3994 324.7775 0004761 105.7353 254.4413 15.30377031 54855
